{
    "links": {
        "self": "http://www.neowsapp.com/rest/v1/neo/3776114?api_key=iIulBulltgU6a56xZRHN4H3l9WmuAYTsLGpBGhQ2"
    },
    "id": "3776114",
    "neo_reference_id": "3776114",
    "name": "(2017 MG7)",
    "designation": "2017 MG7",
    "nasa_jpl_url": "http://ssd.jpl.nasa.gov/sbdb.cgi?sstr=3776114",
    "absolute_magnitude_h": 22.4,
    "estimated_diameter": {
        "kilometers": {
            "estimated_diameter_min": 0.0880146521,
            "estimated_diameter_max": 0.1968067451
        },
        "meters": {
            "estimated_diameter_min": 88.0146520901,
            "estimated_diameter_max": 196.8067450894
        },
        "miles": {
            "estimated_diameter_min": 0.0546897524,
            "estimated_diameter_max": 0.122290004
        },
        "feet": {
            "estimated_diameter_min": 288.7619911632,
            "estimated_diameter_max": 645.6914415591
        }
    },
    "is_potentially_hazardous_asteroid": false,
    "close_approach_data": [
        {
            "close_approach_date": "2017-07-12",
            "close_approach_date_full": "2017-Jul-12 03:09",
            "epoch_date_close_approach": 1499828940000,
            "relative_velocity": {
                "kilometers_per_second": "16.4919897142",
                "kilometers_per_hour": "59371.1629712575",
                "miles_per_hour": "36890.9317917794"
            },
            "miss_distance": {
                "astronomical": "0.2773853259",
                "lunar": "107.9028917751",
                "kilometers": "41496253.923895833",
                "miles": "25784576.5416071754"
            },
            "orbiting_body": "Earth"
        }
    ],
    "orbital_data": {
        "orbit_id": "2",
        "orbit_determination_date": "2017-07-02 06:22:02",
        "first_observation_date": "2017-06-24",
        "last_observation_date": "2017-07-02",
        "data_arc_in_days": 8,
        "observations_used": 21,
        "orbit_uncertainty": "8",
        "minimum_orbit_intersection": ".273388",
        "jupiter_tisserand_invariant": "3.905",
        "epoch_osculation": "2457930.5",
        "eccentricity": ".3308578661374302",
        "semi_major_axis": "1.758583443520322",
        "inclination": "30.41727835443047",
        "ascending_node_longitude": "280.5739779883153",
        "orbital_period": "851.8103192445354",
        "perihelion_distance": "1.176742277972574",
        "perihelion_argument": "55.48129908899224",
        "aphelion_distance": "2.340424609068069",
        "perihelion_time": "2457996.658455257187",
        "mean_anomaly": "332.039498284418",
        "mean_motion": ".422629301226688",
        "equinox": "J2000",
        "orbit_class": {
            "orbit_class_type": "AMO",
            "orbit_class_description": "Near-Earth asteroid orbits similar to that of 1221 Amor",
            "orbit_class_range": "1.017 AU < q (perihelion) < 1.3 AU"
        }
    },
    "is_sentry_object": false
}